[{"OBJECT_NAME":"GPS BIIR-2  (PRN 13)","OBJECT_ID":"1997-035A","EPOCH":"2026-04-04T09:52:57.696096","MEAN_MOTION":2.00564009,"ECCENTRICITY":0.00989699,"INCLINATION":55.9542,"RA_OF_ASC_NODE":101.4579,"ARG_OF_PERICENTER":56.142,"MEAN_ANOMALY":304.8226,"EPHEMERIS_TYPE":0,"CLASSIFICATION_TYPE":"U","NORAD_CAT_ID":24876,"ELEMENT_SET_NO":999,"REV_AT_EPOCH":21047,"BSTAR":0,"MEAN_MOTION_DOT":1.5e-7,"MEAN_MOTION_DDOT":0},{"OBJECT_NAME":"GPS BIIR-5  (PRN 22)","OBJECT_ID":"2000-040A","EPOCH":"2026-04-04T23:51:12.860640","MEAN_MOTION":2.00569355,"ECCENTRICITY":0.01221289,"INCLINATION":54.8676,"RA_OF_ASC_NODE":218.068,"ARG_OF_PERICENTER":302.5107,"MEAN_ANOMALY":52.6329,"EPHEMERIS_TYPE":0,"CLASSIFICATION_TYPE":"U","NORAD_CAT_ID":26407,"ELEMENT_SET_NO":999,"REV_AT_EPOCH":18847,"BSTAR":0,"MEAN_MOTION_DOT":5.0e-8,"MEAN_MOTION_DDOT":0},{"OBJECT_NAME":"GPS BIIR-8  (PRN 16)","OBJECT_ID":"2003-005A","EPOCH":"2026-04-05T07:51:03.752928","MEAN_MOTION":2.00564575,"ECCENTRICITY":0.01484537,"INCLINATION":54.8987,"RA_OF_ASC_NODE":217.8623,"ARG_OF_PERICENTER":52.8923,"MEAN_ANOMALY":318.3429,"EPHEMERIS_TYPE":0,"CLASSIFICATION_TYPE":"U","NORAD_CAT_ID":27663,"ELEMENT_SET_NO":999,"REV_AT_EPOCH":16985,"BSTAR":0,"MEAN_MOTION_DOT":7.0e-8,"MEAN_MOTION_DDOT":0},{"OBJECT_NAME":"GPS BIIR-11 (PRN 19)","OBJECT_ID":"2004-009A","EPOCH":"2026-04-03T08:14:52.746720","MEAN_MOTION":2.00557195,"ECCENTRICITY":0.01124448,"INCLINATION":54.8926,"RA_OF_ASC_NODE":278.7093,"ARG_OF_PERICENTER":169.9755,"MEAN_ANOMALY":4.1137,"EPHEMERIS_TYPE":0,"CLASSIFICATION_TYPE":"U","NORAD_CAT_ID":28190,"ELEMENT_SET_NO":999,"REV_AT_EPOCH":16144,"BSTAR":0,"MEAN_MOTION_DOT":-3.5e-7,"MEAN_MOTION_DDOT":0},{"OBJECT_NAME":"GPS BIIR-13 (PRN 02)","OBJECT_ID":"2004-045A","EPOCH":"2026-04-04T18:08:27.918816","MEAN_MOTION":2.00575086,"ECCENTRICITY":0.01703512,"INCLINATION":55.1773,"RA_OF_ASC_NODE":327.8549,"ARG_OF_PERICENTER":314.0213,"MEAN_ANOMALY":224.915,"EPHEMERIS_TYPE":0,"CLASSIFICATION_TYPE":"U","NORAD_CAT_ID":28474,"ELEMENT_SET_NO":999,"REV_AT_EPOCH":15695,"BSTAR":0,"MEAN_MOTION_DOT":-8.5e-7,"MEAN_MOTION_DDOT":0},{"OBJECT_NAME":"GPS BIIRM-1 (PRN 17)","OBJECT_ID":"2005-038A","EPOCH":"2026-04-04T23:58:24.838176","MEAN_MOTION":2.00570897,"ECCENTRICITY":0.01280721,"INCLINATION":54.9389,"RA_OF_ASC_NODE":276.1292,"ARG_OF_PERICENTER":295.7066,"MEAN_ANOMALY":18.9187,"EPHEMERIS_TYPE":0,"CLASSIFICATION_TYPE":"U","NORAD_CAT_ID":28874,"ELEMENT_SET_NO":999,"REV_AT_EPOCH":15036,"BSTAR":0,"MEAN_MOTION_DOT":-2.1e-7,"MEAN_MOTION_DDOT":0},{"OBJECT_NAME":"GPS BIIRM-2 (PRN 31)","OBJECT_ID":"2006-042A","EPOCH":"2026-04-05T05:18:14.064768","MEAN_MOTION":2.00573913,"ECCENTRICITY":0.01062775,"INCLINATION":54.6997,"RA_OF_ASC_NODE":154.2366,"ARG_OF_PERICENTER":53.2094,"MEAN_ANOMALY":319.1647,"EPHEMERIS_TYPE":0,"CLASSIFICATION_TYPE":"U","NORAD_CAT_ID":29486,"ELEMENT_SET_NO":999,"REV_AT_EPOCH":14293,"BSTAR":0,"MEAN_MOTION_DOT":2.3e-7,"MEAN_MOTION_DDOT":0},{"OBJECT_NAME":"GPS BIIRM-3 (PRN 12)","OBJECT_ID":"2006-052A","EPOCH":"2026-04-04T15:01:22.786752","MEAN_MOTION":2.0055382,"ECCENTRICITY":0.00870802,"INCLINATION":54.9494,"RA_OF_ASC_NODE":216.9209,"ARG_OF_PERICENTER":89.9254,"MEAN_ANOMALY":271.054,"EPHEMERIS_TYPE":0,"CLASSIFICATION_TYPE":"U","NORAD_CAT_ID":29601,"ELEMENT_SET_NO":999,"REV_AT_EPOCH":14193,"BSTAR":0,"MEAN_MOTION_DOT":4.0e-8,"MEAN_MOTION_DDOT":0},{"OBJECT_NAME":"GPS BIIRM-4 (PRN 15)","OBJECT_ID":"2007-047A","EPOCH":"2026-04-04T22:21:21.273408","MEAN_MOTION":2.00559152,"ECCENTRICITY":0.0164095,"INCLINATION":54.0414,"RA_OF_ASC_NODE":83.0831,"ARG_OF_PERICENTER":86.2491,"MEAN_ANOMALY":275.6217,"EPHEMERIS_TYPE":0,"CLASSIFICATION_TYPE":"U","NORAD_CAT_ID":32260,"ELEMENT_SET_NO":999,"REV_AT_EPOCH":13534,"BSTAR":0,"MEAN_MOTION_DOT":-1.3e-7,"MEAN_MOTION_DDOT":0},{"OBJECT_NAME":"GPS BIIRM-5 (PRN 29)","OBJECT_ID":"2007-062A","EPOCH":"2026-04-05T00:04:11.523360","MEAN_MOTION":2.00555625,"ECCENTRICITY":0.00339116,"INCLINATION":55.091,"RA_OF_ASC_NODE":277.0926,"ARG_OF_PERICENTER":161.3571,"MEAN_ANOMALY":17.5151,"EPHEMERIS_TYPE":0,"CLASSIFICATION_TYPE":"U","NORAD_CAT_ID":32384,"ELEMENT_SET_NO":999,"REV_AT_EPOCH":13404,"BSTAR":0,"MEAN_MOTION_DOT":-2.2e-7,"MEAN_MOTION_DDOT":0},{"OBJECT_NAME":"GPS BIIRM-6 (PRN 07)","OBJECT_ID":"2008-012A","EPOCH":"2026-04-04T20:21:33.961536","MEAN_MOTION":2.00570376,"ECCENTRICITY":0.02087143,"INCLINATION":54.4849,"RA_OF_ASC_NODE":152.8554,"ARG_OF_PERICENTER":246.741,"MEAN_ANOMALY":111.1263,"EPHEMERIS_TYPE":0,"CLASSIFICATION_TYPE":"U","NORAD_CAT_ID":32711,"ELEMENT_SET_NO":999,"REV_AT_EPOCH":13228,"BSTAR":0,"MEAN_MOTION_DOT":2.5e-7,"MEAN_MOTION_DDOT":0},{"OBJECT_NAME":"GPS BIIRM-8 (PRN 05)","OBJECT_ID":"2009-043A","EPOCH":"2026-04-04T20:12:32.343264","MEAN_MOTION":2.00558542,"ECCENTRICITY":0.00524638,"INCLINATION":56.1675,"RA_OF_ASC_NODE":30.333,"ARG_OF_PERICENTER":80.9165,"MEAN_ANOMALY":289.0663,"EPHEMERIS_TYPE":0,"CLASSIFICATION_TYPE":"U","NORAD_CAT_ID":35752,"ELEMENT_SET_NO":999,"REV_AT_EPOCH":12189,"BSTAR":0,"MEAN_MOTION_DOT":-9.0e-7,"MEAN_MOTION_DDOT":0},{"OBJECT_NAME":"GPS BIIF-1  (PRN 25)","OBJECT_ID":"2010-022A","EPOCH":"2026-04-05T04:00:51.194880","MEAN_MOTION":2.00558893,"ECCENTRICITY":0.01269575,"INCLINATION":54.282,"RA_OF_ASC_NODE":211.5026,"ARG_OF_PERICENTER":66.0332,"MEAN_ANOMALY":295.6559,"EPHEMERIS_TYPE":0,"CLASSIFICATION_TYPE":"U","NORAD_CAT_ID":36585,"ELEMENT_SET_NO":999,"REV_AT_EPOCH":11613,"BSTAR":0,"MEAN_MOTION_DOT":6.0e-8,"MEAN_MOTION_DDOT":0},{"OBJECT_NAME":"GPS BIIF-3  (PRN 24)","OBJECT_ID":"2012-053A","EPOCH":"2026-04-05T00:38:43.263168","MEAN_MOTION":2.00566348,"ECCENTRICITY":0.01774159,"INCLINATION":53.5702,"RA_OF_ASC_NODE":146.5972,"ARG_OF_PERICENTER":64.9825,"MEAN_ANOMALY":296.9316,"EPHEMERIS_TYPE":0,"CLASSIFICATION_TYPE":"U","NORAD_CAT_ID":38833,"ELEMENT_SET_NO":999,"REV_AT_EPOCH":9797,"BSTAR":0,"MEAN_MOTION_DOT":2.4e-7,"MEAN_MOTION_DDOT":0},{"OBJECT_NAME":"GPS BIIF-4  (PRN 27)","OBJECT_ID":"2013-023A","EPOCH":"2026-03-31T21:41:02.271264","MEAN_MOTION":2.00563989,"ECCENTRICITY":0.0141962,"INCLINATION":54.5658,"RA_OF_ASC_NODE":272.1198,"ARG_OF_PERICENTER":50.3418,"MEAN_ANOMALY":310.8851,"EPHEMERIS_TYPE":0,"CLASSIFICATION_TYPE":"U","NORAD_CAT_ID":39166,"ELEMENT_SET_NO":999,"REV_AT_EPOCH":9433,"BSTAR":0,"MEAN_MOTION_DOT":-3.4e-7,"MEAN_MOTION_DDOT":0},{"OBJECT_NAME":"GPS BIIF-5  (PRN 30)","OBJECT_ID":"2014-008A","EPOCH":"2026-04-04T21:24:37.656864","MEAN_MOTION":2.00555176,"ECCENTRICITY":0.00832898,"INCLINATION":53.641,"RA_OF_ASC_NODE":152.3102,"ARG_OF_PERICENTER":229.4069,"MEAN_ANOMALY":129.9443,"EPHEMERIS_TYPE":0,"CLASSIFICATION_TYPE":"U","NORAD_CAT_ID":39533,"ELEMENT_SET_NO":999,"REV_AT_EPOCH":8821,"BSTAR":0,"MEAN_MOTION_DOT":2.4e-7,"MEAN_MOTION_DDOT":0},{"OBJECT_NAME":"GPS BIIF-6  (PRN 06)","OBJECT_ID":"2014-026A","EPOCH":"2026-04-04T04:06:53.650656","MEAN_MOTION":2.00566566,"ECCENTRICITY":0.0039371,"INCLINATION":56.5319,"RA_OF_ASC_NODE":334.4006,"ARG_OF_PERICENTER":326.0604,"MEAN_ANOMALY":33.7376,"EPHEMERIS_TYPE":0,"CLASSIFICATION_TYPE":"U","NORAD_CAT_ID":39741,"ELEMENT_SET_NO":999,"REV_AT_EPOCH":8705,"BSTAR":0,"MEAN_MOTION_DOT":-9.0e-7,"MEAN_MOTION_DDOT":0}]
